pub_identity,pub_deletion,place,name,address,latitude,longitude,category,station_identity,area_identity
00ffd490-b3b8-424d-b5d2-5122bbebdba2,False,ChIJd9ZrglcDdkgRbfzaNDJlWWk,Katzenjammers,"The Hop Exchange, 24 Southwark St, London SE1 1TY, UK",51.50487263904412,-0.0909537076950073,Bar,f5b94c64-beb5-4295-95a1-34fc1f5b5a8d,71f589fb-f617-48b9-b779-dc1e8d73b1fe
10f611a2-512f-4b07-aa57-8de878ccbb3b,False,ChIJ03GSCloDdkgRe_s-p2vyvQA,The Shard,"32 London Bridge St, London SE1 9SG, UK",51.504500331029135,-0.0865012407302856,Other,f5b94c64-beb5-4295-95a1-34fc1f5b5a8d,71f589fb-f617-48b9-b779-dc1e8d73b1fe
7f3d8913-5a6d-40a4-a3e4-cd6eb0b0b8bf,False,ChIJo15e1lkDdkgR-X84Yf2cA0s,George,"75 Borough High St, London SE1 1NH, UK",51.50425365442453,-0.0900927186012268,Bar,f5b94c64-beb5-4295-95a1-34fc1f5b5a8d,71f589fb-f617-48b9-b779-dc1e8d73b1fe
0d3af39b-2da5-4ce4-bb58-734a1523af77,False,ChIJ6fK9FtAPdkgRdZW6DkHWrnU,Defectors Weld,"170 Uxbridge Rd, London W12 8AA, UK",51.505251622105526,-0.2244298160076141,Bar,88f17742-208e-4759-9444-3f128e5a07cd,a8270094-1d5b-4558-a1d0-5be568497233
b9f3cbd8-2466-4652-9158-0d8a432bc1e7,False,ChIJYdET4FQDdkgRbjvXg_CcAm0,The Ned,"27 Poultry, London EC2R 8AJ, UK",51.5136168286822,-0.0901302695274353,Bar,7a683234-b0e5-49f4-b894-55b5ddaa9eef,71f589fb-f617-48b9-b779-dc1e8d73b1fe
979b46f5-07a3-4f18-83de-ac5b365a8f1c,False,ChIJNQsDclUDdkgRvZqcNZvdRgM,Core Bar,"10-15 Queen St, London EC4N 1TY, UK",51.51297250696187,-0.092659592628479,Bar,17d9ab39-318d-4187-bdcb-a6aa315d1997,71f589fb-f617-48b9-b779-dc1e8d73b1fe
fd1f6053-8868-419a-a445-fd24a21e8b99,False,ChIJy2QpfVUDdkgR_ZjHMTwf28A,Ye Olde Watling,"29 Watling St, Greater, London EC4M 9BR, UK",51.51292242976256,-0.0935447216033935,Bar,17d9ab39-318d-4187-bdcb-a6aa315d1997,71f589fb-f617-48b9-b779-dc1e8d73b1fe
e550bd4d-7593-458b-b7b7-a36bfa2dfd62,False,ChIJxSm2gqoEdkgR8QXyqlo5k2A,"The Pavilion End, St Paul's","23 Watling St, London EC4M 9BR, UK",51.51301590715673,-0.0939711928367614,Bar,17d9ab39-318d-4187-bdcb-a6aa315d1997,71f589fb-f617-48b9-b779-dc1e8d73b1fe
46ba2acd-3c20-435f-8dfa-679e03665fa1,False,ChIJMz9GjlQDdkgR_JrS2W6SR5w,1 Lombard Street,"1 Lombard St, London EC3V 9AA, UK",51.51313943056201,-0.0889903306961059,Restaurant,7a683234-b0e5-49f4-b894-55b5ddaa9eef,71f589fb-f617-48b9-b779-dc1e8d73b1fe
7ae82cb5-b1cb-4942-a8be-fc963e12115b,False,ChIJSxmw_XoddkgRZkNuuzDpEjU,Bethnal Green Tavern,"456 Bethnal Grn Rd, London E2 0EA, UK",51.52705036255226,-0.0583380460739135,Bar,ff9f143a-4b17-424b-a8fc-1730006f68ef,031970b0-c0f6-450a-8515-4129c30f3302
86e87971-3736-43ab-ab13-fc6f1710d137,False,ChIJKQybmMUcdkgRvKkwtJ1nuC4,The Star of Bethnal Green,"359 Bethnal Grn Rd, London E2 6LG, UK",51.52685908475908,-0.0621035322546958,Bar,75d3e34e-3654-4a83-b2a6-bb658144d808,480fafaa-7b2b-4282-a14f-e226e0b20922
f66dca59-968a-408e-a296-aa2a122a03c0,False,ChIJQx4N7awEdkgR_pyyN_97IEI,The Rising Sun,"61 Carter Ln, London EC4V 5DY, UK",51.51314443826056,-0.1013553142547607,Bar,1fb0c041-e7ac-4df4-a197-20518fad1038,71f589fb-f617-48b9-b779-dc1e8d73b1fe
326901b5-a450-4287-8e6a-cdeda715bb31,False,ChIJKatbfqUEdkgRDmgIHPcWgBU,The Blackfriar,"174 Queen Victoria St, Greater, London EC4V 4EG, UK",51.51211617927562,-0.1037156581878662,Bar,afa09622-cf9e-46f3-8137-da52aa748819,87b4b121-bf17-44e7-805a-a860f9ee4b33
52cfd587-e6fd-4e0a-b7b3-646f296c75f7,false,ChIJAYRh7uAadkgRwXtsG_hjTg8,Spread Eagle,"141 Albert St, London NW1 7NB, UK",51.537618828197296,-0.1448392868041992,Bar,c8ba9409-51c5-4435-ac3c-9b17feb49030,f25607ca-ec88-46dc-a1f3-b8dedd3e5ca3
b873637f-586a-4468-b6a6-b43b798a7ce1,False,ChIJR7teK8YadkgR1SdhkGwMTko,Earl Of Camden,"55 Parkway, London NW1 7AH, UK",51.53787908783599,-0.1445469260215759,Bar,c8ba9409-51c5-4435-ac3c-9b17feb49030,f25607ca-ec88-46dc-a1f3-b8dedd3e5ca3
d80084ab-fc2c-4039-bdb7-b5f9c78cafd9,False,ChIJ0Z8seOEadkgRhJ6wZDbtT2k,The Oxford Arms,"265 Camden High St, London NW1 7BU, UK",51.54061839709396,-0.1442599296569824,Bar,c8ba9409-51c5-4435-ac3c-9b17feb49030,f25607ca-ec88-46dc-a1f3-b8dedd3e5ca3
f787a138-53cb-45ca-a7f8-20564708f07b,False,ChIJ96ezSaoEdkgRYACW4QGP4LY,High Timber Street,"High Timber St, London EC4V, UK",51.51095936017434,-0.0964173674583435,Restaurant,17d9ab39-318d-4187-bdcb-a6aa315d1997,71f589fb-f617-48b9-b779-dc1e8d73b1fe
4172c81d-9e85-47f1-b286-8d590d3d2ab9,False,ChIJHR4pfPgcdkgRZRSlOZj1q4A,The Clapton Hart,"231 Lower Clapton Rd, Lower Clapton, London E5 8EH, UK",51.55777203175359,-0.0561212003231048,Bar,debe8a35-cd92-41a3-b1c7-e77954bb269a,16240ef3-d2e9-4d02-bd79-fabaf2147ff3
e1bfea80-c9bf-4ca3-aa45-b8d20a6f1760,False,ChIJo4SkwvkcdkgRW-jcFyeXZNY,The Star By Hackney Downs,"35 Queensdown Rd, Lower Clapton, London E5 8JQ, UK",51.55310001894009,-0.0577637180685997,Bar,324ae823-eecc-45ad-94c1-15915c736bc1,16240ef3-d2e9-4d02-bd79-fabaf2147ff3
b208b69c-47db-4c52-a57e-b7e864704346,False,ChIJoYQEhvAcdkgRQrz3O6jLA-g,The Pembury Tavern,"90 Amhurst Rd, London E8 1JH, UK",51.54944579193066,-0.0592043995857238,Bar,324ae823-eecc-45ad-94c1-15915c736bc1,16240ef3-d2e9-4d02-bd79-fabaf2147ff3
52e1fb44-4ff8-409a-8dd8-1eb76ad65039,False,ChIJM2sgPFccdkgRIUjfW5OFgF0,The Crooked Billet,"84 Upper Clapton Rd, London E5 9JP, UK",51.56223013369909,-0.0572893023490905,Bar,debe8a35-cd92-41a3-b1c7-e77954bb269a,16240ef3-d2e9-4d02-bd79-fabaf2147ff3
331bd646-3267-48e1-b250-422c06d121e9,False,ChIJjQX3T6sddkgRt-e8wYemD_Y,Princess of Wales,"146 Lea Bridge Rd, Lower Clapton, London E5 9RB, UK",51.56187330153228,-0.0457826256752014,Bar,debe8a35-cd92-41a3-b1c7-e77954bb269a,16240ef3-d2e9-4d02-bd79-fabaf2147ff3
efcf3870-da4d-4a44-9c1b-3d5be38edeaa,False,ChIJtVNpD8sEdkgRW_kxR_77yN4,Marquess of Anglesey,"39 Bow St, London WC2E 7AU, UK",51.5128702659547,-0.1212958618998527,Bar,6755ece0-c460-4849-9ba9-ece9e516d8f1,5dbbbdb9-3ab1-4a96-a0e9-edf4ca8bd52a
eabe0a83-2841-4c72-b86a-4fb5504e2161,False,ChIJnx8u7bQEdkgRGm5XKuA0SBQ,The George,"213 Strand, Temple, London WC2R 1AP, UK",51.51322414405512,-0.1130708679556846,Bar,a9dd3bb6-f448-4315-b4b9-be59803228f3,31e94930-b83f-4fed-914f-23c75fb14cae
75d7f798-4740-483c-9140-88318b66078e,False,ChIJPyb_JskEdkgRDw4ffzUc8cQ,The Coal Hole,"91-92 Strand, Greater, London WC2R 0DW, UK",51.510391790277765,-0.1212948560714721,Bar,457a9061-abd6-4bb1-8017-0c1eaeb4efdd,5dbbbdb9-3ab1-4a96-a0e9-edf4ca8bd52a
2fb4fd5e-0efa-406b-9766-68a70919ff97,False,ChIJecwW7esFdkgRtcYqImd3s0w,Champagne + Fromage,"22 Wellington St, London WC2E 7DD, UK",51.51201623159851,-0.1200851798057556,Restaurant,6755ece0-c460-4849-9ba9-ece9e516d8f1,5dbbbdb9-3ab1-4a96-a0e9-edf4ca8bd52a
e8cbe945-648f-4a82-8e4b-8a6eb043af7f,False,ChIJKZfgUMoEdkgRjRIYygsCkSY,Christopher's,"18 Wellington St, London WC2E 7DD, UK",51.51193923626556,-0.1198330521583557,Restaurant,ddc420a7-76a5-474e-92c4-b3d065feb9f3,5dbbbdb9-3ab1-4a96-a0e9-edf4ca8bd52a
5c5aa314-0ef0-4a92-9aa2-45e89bcd7f0c,False,ChIJa1uHRMoEdkgRq4LNAJbXbhg,CellarDoor,"Zero Aldwych, Wellington St, London WC2E 7DN, UK",51.5116153953917,-0.1193569600582122,Bar,ddc420a7-76a5-474e-92c4-b3d065feb9f3,5dbbbdb9-3ab1-4a96-a0e9-edf4ca8bd52a
0ca14449-0d5b-4e03-9247-99fed9cebbc3,False,ChIJ8W1157cEdkgRaKMYsrcpgH0,Royal Festival Hall,"Southbank Centre, Belvedere Rd, London SE1 8XX, UK",51.5060805,-0.1163042,Other,ebf71968-a0a8-48a5-b003-63b1b53f9375,31e94930-b83f-4fed-914f-23c75fb14cae
b6d31073-ce95-401a-92c5-7d2be7db68b3,False,ChIJgaI8bFIDdkgRhJJqLMxsFdU,Sky Garden,"1, Sky Garden Walk, London EC3M 8AF, UK",51.511243142471045,-0.0835508108139038,Bar,c5ed4730-14c1-4642-9e10-6cfbe543498b,71f589fb-f617-48b9-b779-dc1e8d73b1fe
4d2376eb-40b2-47c6-93f8-53e97797d0b7,False,ChIJOxYFl0sbdkgR51JuZNQ0Y3g,Cittie of Yorke,"Cittie of Yorke, 22 High Holborn, London WC1V 6BN, UK",51.51845896532563,-0.1127872243523597,Bar,d6281a4d-bb07-4586-84b6-c4eab9b52dc4,87fbc59f-9c44-4e78-b4b5-000ef3b4d559
ddb0ba78-7fde-474e-881d-bf496d7548e1,False,ChIJaRq98qwEdkgR_nn4VqBe_6M,The Cockpit,"7 St Andrew's Hill, London EC4V 5BY, UK",51.51269374318595,-0.1014491915702819,Bar,afa09622-cf9e-46f3-8137-da52aa748819,71f589fb-f617-48b9-b779-dc1e8d73b1fe
96e5b874-57a3-4cb6-be60-6c855a530f7d,False,ChIJ2fE9pzsbdkgRQDoE6r7vcoE,O'Neill's Kings Cross,"73-77 Euston Rd., Greater, Marylebone, London NW1 2QS, UK",51.52893618924976,-0.1261496543884277,Bar,9e6ac1e8-b05d-4fd5-a4a3-ba878a4697f3,8576a0cd-0b4d-4a85-ba3c-122360e7d5f8
c80753b4-f2ce-41c4-9420-6f9871326a16,False,ChIJT-rNlqUEdkgR5G9oPjmn1Yw,The Union Jack,"225 Union St, London SE1 0LR, UK",51.5035324,-0.1016115,Bar,60db6fb9-5880-4dc1-af13-316d2d1a6a17,31e94930-b83f-4fed-914f-23c75fb14cae
9d8336e0-f6e3-43f7-871b-c1a3cf39832d,False,ChIJDchXhaUEdkgRCRwclHX0rF8,The Charlotte,"204 Union St, London SE1 0LX, UK",51.50377741036616,-0.1017898321151733,Bar,60db6fb9-5880-4dc1-af13-316d2d1a6a17,31e94930-b83f-4fed-914f-23c75fb14cae
adcf5db3-36c1-46b2-8749-342563247653,False,ChIJQcZS_aUEdkgRajvII1ivtNc,MC & Sons,"160 Union St, London SE1 0LH, UK",51.50380287139267,-0.0998194143176078,Bar,60db6fb9-5880-4dc1-af13-316d2d1a6a17,31e94930-b83f-4fed-914f-23c75fb14cae
84416e36-e768-4bfc-a98a-a1371cf9aaf8,False,ChIJp28MwEsbdkgRQvFbrHlXvgQ,Caravan,"1 Granary Square, London N1C 4AA, UK",51.535740243333045,-0.1253503561019897,Restaurant,9e6ac1e8-b05d-4fd5-a4a3-ba878a4697f3,8576a0cd-0b4d-4a85-ba3c-122360e7d5f8
fdab90b9-7005-431a-a731-ed6c89f59695,False,ChIJF5kaKUEDdkgR5FBrwCJSn2Y,The Grain Store,"118 Druid St, London SE1 2HH, UK",51.4987047,-0.0734369,Other,2a815311-c162-4c4a-94bf-e5a3e1638564,480fafaa-7b2b-4282-a14f-e226e0b20922
ff7be415-4291-42a1-bbff-fd894d083b0f,False,ChIJqWL6gz0bdkgRL14qKTnAjXQ,Dishoom King's Cross,"5 Stable St, London N1C 4AB, UK",51.53621907294809,-0.1255059242248535,Restaurant,9e6ac1e8-b05d-4fd5-a4a3-ba878a4697f3,8576a0cd-0b4d-4a85-ba3c-122360e7d5f8
56244643-1992-442e-bf84-81345afb68cc,False,ChIJiy8xqk0DdkgRM48HO2GWqAs,East India Arms,"67 Fenchurch St, London EC3M 4BR, UK",51.51235822284617,-0.0792565941810607,Bar,9a9cba8c-c0d8-4211-af39-154a04ca5e14,480fafaa-7b2b-4282-a14f-e226e0b20922
0da2944a-1f77-44fd-9a61-63d5c628c3dd,False,ChIJzSTUm7McdkgRKwPAnSzx7Jc,Grapeshots,"2-3 Artillery Ln, Liverpool St, London E1 7LJ, UK",51.51810491926141,-0.0773505493998527,Bar,21d98f91-f4f6-4a17-9c96-2f81a74a8a5c,480fafaa-7b2b-4282-a14f-e226e0b20922
6bb18e6f-42e5-4f54-b98a-75302168364c,False,ChIJ5RaXpLMcdkgR9zQEorKYcI4,Kings Stores,"14 Widegate St, London E1 7HW, UK",51.51804462475466,-0.077819600701332,Bar,21d98f91-f4f6-4a17-9c96-2f81a74a8a5c,71f589fb-f617-48b9-b779-dc1e8d73b1fe
b7ee8f4f-846a-49dc-a04a-82f86a9d68ff,False,ChIJ_xlJsrMcdkgRvo7jys8KrBI,Williams Ale & Cider House,"22-24 Artillery Ln, London E1 7LS, UK",51.51839887991758,-0.0784680247306823,Bar,21d98f91-f4f6-4a17-9c96-2f81a74a8a5c,480fafaa-7b2b-4282-a14f-e226e0b20922
49bf46f8-088d-44aa-afee-c96875a311a7,False,ChIJ2QufhMwEdkgRXCUo74j_0Zo,"The Nags Head, Covent Garden","10 James St, London WC2E 8BT, UK",51.512913666247,-0.1236800104379654,Bar,6755ece0-c460-4849-9ba9-ece9e516d8f1,5dbbbdb9-3ab1-4a96-a0e9-edf4ca8bd52a
57fe4fa1-3339-47f7-be7c-8de1e4b539d6,False,ChIJ2Qu8ycwEdkgRAGMpL0ZIvEs,Circus,"27-29 Endell St, London WC2H 9BA, UK",51.51448815081365,-0.1246529817581176,Bar,6755ece0-c460-4849-9ba9-ece9e516d8f1,5dbbbdb9-3ab1-4a96-a0e9-edf4ca8bd52a
9b7c0aba-1eb5-4006-887b-d7903b0a566d,False,ChIJsecEQrMEdkgRvd4CVnayQPs,Ye Olde Cock Tavern,"22 Fleet St, Temple, London EC4Y 1AA, UK",51.51379877280289,-0.1105070114135742,Bar,a9dd3bb6-f448-4315-b4b9-be59803228f3,87b4b121-bf17-44e7-805a-a860f9ee4b33
79bfdc53-24f4-4f44-8b80-3a0a553b0898,False,ChIJs73oJLMEdkgRTi3AY5xywJg,El Vino Fleet Street,"47 Fleet St, Temple, London EC4Y 1BJ, UK",51.51406167242751,-0.1092118397355079,Bar,1fb0c041-e7ac-4df4-a197-20518fad1038,87fbc59f-9c44-4e78-b4b5-000ef3b4d559
fc01e35d-870c-4e42-9465-9087f316a824,False,ChIJEfqJek4bdkgRyQYJiqgSDew,The Craft Beer Co. Clerkenwell,"82 Leather Ln, London EC1N 7TR, UK",51.52127955222075,-0.1096822321414947,Bar,d6281a4d-bb07-4586-84b6-c4eab9b52dc4,87b4b121-bf17-44e7-805a-a860f9ee4b33
712563fe-a173-4e5f-ac01-7da8c79e2e73,False,ChIJEzxesdQEdkgRPSzStADi2KQ,Copita,"27 D'Arblay St, London W1F 8EN, UK",51.5145582564676,-0.1360577344894409,Restaurant,7d6570e0-c264-4105-a26e-7864393b92ed,1676a419-f2d0-4bf4-a5ae-569fea25e991
6c3d8d8e-0d88-4610-849f-f8e54d9ca908,False,ChIJAyUgv9QEdkgRn5HRBvUrTSo,Barrio,"6 Poland St, London W1F 8PS, UK",51.5141570253291,-0.1366085931658744,Bar,7d6570e0-c264-4105-a26e-7864393b92ed,1676a419-f2d0-4bf4-a5ae-569fea25e991
d7ce77a7-de01-4e3d-ab87-6ebfc1b5f6f2,False,ChIJsc-I-CsbdkgRf9RP9okWL5k,Reverend J W Simpson,"32 Goodge St, London W1T 2QJ, UK",51.51968402274979,-0.1351860165596008,Bar,221804cf-0da7-4ba7-ae93-4696429152ce,1676a419-f2d0-4bf4-a5ae-569fea25e991
654ff207-1bda-4865-86e5-7ee974fa4a74,False,ChIJv8WOeywbdkgRzbm2SfWGJhg,The Marquis Of Granby,"2 Rathbone St, Greater, London W1T 1NR, UK",51.51798495606386,-0.1345852017402649,Bar,221804cf-0da7-4ba7-ae93-4696429152ce,1676a419-f2d0-4bf4-a5ae-569fea25e991
a9001d88-fd2e-4240-a95a-c98322365eb0,False,ChIJGwSfOroEdkgRj73qMoMAw1w,Fire Station,"150 Waterloo Rd, London SE1 8SB, UK",51.50257196056819,-0.1106035709381103,Bar,54f3eb8b-4c46-42d1-9b5f-4778650cae45,31e94930-b83f-4fed-914f-23c75fb14cae
9f2df78c-a1c4-4070-88da-8ba2d8bbe87d,False,ChIJM0n9x7IEdkgRZllOf-c6RYQ,Ye Olde Cheshire Cheese,"145 Fleet St, London EC4A 2BP, UK",51.51436776079308,-0.1071700081229209,Bar,1fb0c041-e7ac-4df4-a197-20518fad1038,87b4b121-bf17-44e7-805a-a860f9ee4b33
8905f38f-5abe-4ff7-9b22-72ab50645c21,False,ChIJeaFiSVAbdkgRMReUY6rO8Kw,The Dovetail,"9-10 Jerusalem Passage, London EC1V 4JP, UK",51.523263246459,-0.1039691269397735,Restaurant,86863791-1cbc-4743-8fc1-daed77eb8128,dba395e1-7632-4228-a9b8-e0e4dba2fac5
85734c01-6261-4784-b024-637b12b8d4f4,False,ChIJc1290q8EdkgRzmquDwQgy48,Fuller's Ale & Pie House,"60-63 W Smithfield, London EC1A 9DY, UK",51.51879527524319,-0.1005265116691589,Restaurant,d97b5ad4-eff1-439d-aad7-b121519aa3db,87b4b121-bf17-44e7-805a-a860f9ee4b33
e96d9cfd-fb5e-4f5f-b722-bf6cd1ad3aad,False,ChIJYxIC5M4EdkgR1KNQDHX_n1k,"Ship and Shovell Pub & Restaurant, Charing Cross","1-3 Craven Passage, London WC2N 5PH, UK",51.50766526955408,-0.1247327774763107,Bar,d1e053d2-34e4-4f3b-b83f-c4fb92769880,5dbbbdb9-3ab1-4a96-a0e9-edf4ca8bd52a
ad5a02d1-f965-4a88-aca1-a194f904af3c,False,ChIJ4UBjIAobdkgR0ixhyjWiytw,Homeboy Bar - Islington,"108 Essex Rd, London N1 8LX, UK",51.53893950535317,-0.0982815027236938,Bar,d64263fb-509a-4339-a6d2-3a86b865c4a8,dba395e1-7632-4228-a9b8-e0e4dba2fac5
3469b529-b3a5-4c14-b1f2-265b2aec0c3c,False,ChIJ05iDR6EEdkgR42XNGDj22yE,Mercato Metropolitano,"42 Newington Causeway, London SE1 6DR, UK",51.49846012677939,-0.0984095782041549,Bar,cdb93a1d-f3aa-4cb1-8744-29fde3706cc6,31e94930-b83f-4fed-914f-23c75fb14cae
168c5191-a91d-4774-af72-c0b60222cd5c,False,ChIJBZy_ImUbdkgRikjoTsqS6zY,Famous Cock Tavern,"259 Upper St, London N1 1RU, UK",51.5460311,-0.1034609,Bar,6339de91-7b07-4cc2-960f-3e12bb216599,dba395e1-7632-4228-a9b8-e0e4dba2fac5
02587b03-dfd1-4ac7-a987-762c49d7648d,False,ChIJ52G0Y-gddkgRBDmAqXB5rQI,Ye Olde Rose & Crown,"53 Hoe St, London E17 4SA, UK",51.58777762255942,-0.0206268578767776,Bar,4cb5aabd-df77-44d4-9f6a-e0452b6f00fa,be3be431-d8c0-4327-83e7-4718f2d97d97
5d30094e-5fcc-4144-bed7-9aee72419468,False,ChIJjzYS-O0ddkgRIvkzXxyMp8w,The Village Pub,"31 Orford Rd, London E17 9NL, UK",51.58272660740505,-0.0118714570999145,Bar,4cb5aabd-df77-44d4-9f6a-e0452b6f00fa,be3be431-d8c0-4327-83e7-4718f2d97d97
c9a4f721-53ae-4482-916c-abc4e1ba52b1,False,ChIJn9h9h_IddkgRcUXuJHkuRSM,The Castle,"15 Grosvenor Rise E, London E17 9LB, UK",51.58069737698731,-0.0112055987119674,Bar,4cb5aabd-df77-44d4-9f6a-e0452b6f00fa,be3be431-d8c0-4327-83e7-4718f2d97d97
188ac738-7e4e-4433-ba8b-2e97b241bc1c,False,ChIJ6VEr-_EddkgRrOJ9YVG8gNk,The Nags Head,"9 Orford Rd, London E17 9LP, UK",51.5841265,-0.0111748,Bar,4cb5aabd-df77-44d4-9f6a-e0452b6f00fa,be3be431-d8c0-4327-83e7-4718f2d97d97
bb027aa9-9516-4d92-a8f4-cb2cf4ed194d,False,ChIJq6oaqNUadkgRpZOzYplQjq4,The Wigmore,"15 Langham Pl, London W1B 3DE, UK",51.5174992583581,-0.1432782411575317,Bar,7d6570e0-c264-4105-a26e-7864393b92ed,f25607ca-ec88-46dc-a1f3-b8dedd3e5ca3
497e830f-50f8-40b9-8dcf-24e45a09484a,False,ChIJ6Zr2DqIEdkgRhVkq34baxiw,The Elephant and Castle Pub,"119 Newington Causeway, Elephant and Castle, London SE1 6BN, UK",51.49535883948261,-0.0995853915810585,Bar,cdb93a1d-f3aa-4cb1-8744-29fde3706cc6,31e94930-b83f-4fed-914f-23c75fb14cae
94d24fde-0b24-4bec-a05d-3c8ca530db55,False,ChIJD7jeSWcbdkgRwyRdbn_qKIQ,The Old Queens Head Pub,"44 Essex Rd, London N1 8LN, UK",51.53722635051119,-0.1004061475396156,Bar,d64263fb-509a-4339-a6d2-3a86b865c4a8,dba395e1-7632-4228-a9b8-e0e4dba2fac5
8c8cb344-915a-458d-8931-f674e014c890,False,ChIJSwlOvuUddkgRJM_Ry9bSQig,The Bell Walthamstow,"617 Forest Rd, London E17 4NE, UK",51.59020293522906,-0.0170451030135154,Bar,4cb5aabd-df77-44d4-9f6a-e0452b6f00fa,be3be431-d8c0-4327-83e7-4718f2d97d97
5b752b18-6d5f-404d-a831-cea145c34dae,False,ChIJOXISL-oddkgR8T4iCezLtY4,Big Penny Social,"1 Priestley Way, London E17 6AL, UK",51.59085509999999,-0.0413180999999999,Bar,b2452466-5e6c-481f-abf5-bd2527db9c42,16240ef3-d2e9-4d02-bd79-fabaf2147ff3
9afdd6e1-eabf-4168-83c4-fac64213395d,False,ChIJBb5fV8gadkgRLINMO9W-oy8,Sir John Balcombe Marylebone,"21 Balcombe St, London NW1 6HE, UK",51.52341469542896,-0.1618575677275657,Bar,12ff1843-54c0-448e-a75b-a431c4f8feda,f25607ca-ec88-46dc-a1f3-b8dedd3e5ca3
de17a7db-b556-4d21-aab3-b9eda3c80a18,False,ChIJkfUgL8YadkgR35n_vJTk9iw,The Windsor Castle Pub,"98 Park Rd, London NW1 4SH, UK",51.52640080743176,-0.162275992333889,Bar,12ff1843-54c0-448e-a75b-a431c4f8feda,f25607ca-ec88-46dc-a1f3-b8dedd3e5ca3
e38325a7-4adf-4ab7-b80d-94916536e1df,False,ChIJLexnMbYadkgRPOV3M45-yKU,The Globe,"47 Lisson Grove, London NW1 6UB, UK",51.522610508151416,-0.1656294241547584,Bar,12ff1843-54c0-448e-a75b-a431c4f8feda,f25607ca-ec88-46dc-a1f3-b8dedd3e5ca3
63673691-2657-41c1-93bd-7605b9b22900,False,ChIJm4Qd6NEadkgRwpO4Br3gZCk,The Prince Regent,"71 Marylebone High St, Greater, London W1U 5JN, UK",51.5214814928652,-0.1520061492919922,Bar,dc84189d-c4ab-451b-b749-de9c5f9643e1,f25607ca-ec88-46dc-a1f3-b8dedd3e5ca3
1cb1f253-e3c1-418b-8aa6-9f3f69657fa9,False,ChIJ8bsd_s4adkgR4gcM2GRyhEM,The Metropolitan Bar,"7, Station Approach, Marylebone Rd, London NW1 5LD, UK",51.52254625600009,-0.1568502187728881,Bar,dc84189d-c4ab-451b-b749-de9c5f9643e1,f25607ca-ec88-46dc-a1f3-b8dedd3e5ca3
6acdce70-8e54-450e-bb18-acc8c3aeca13,False,ChIJL4OLGMkadkgRpzzHye670Ws,Allsop Arms,"137 Gloucester Pl, London NW1 5AL, UK",51.52225878909609,-0.1601402834057808,Bar,12ff1843-54c0-448e-a75b-a431c4f8feda,f25607ca-ec88-46dc-a1f3-b8dedd3e5ca3
e754329f-41fc-4f25-987e-9c749047188e,False,ChIJfZ_tiioFdkgRIlznzd6uZTg,Windmill,"6-8 Mill St, London W1S 2AZ, UK",51.512408300665705,-0.1421678066253662,Bar,7d6570e0-c264-4105-a26e-7864393b92ed,632602fe-f847-4e12-9e03-31e3d22aa344
3e38be80-48d3-4177-a80d-7b670494e234,False,ChIJBXXfKUEFdkgRsAfrei_p9pI,Mr Fogg's Pawnbrokers,"50 Dean St, London W1D 5BQ, UK",51.51267538144023,-0.1316776871681213,Bar,a2fa95a7-428a-414b-a249-9e8d4a8aa9bd,1676a419-f2d0-4bf4-a5ae-569fea25e991
cf5bc9ca-01c3-43e1-8b44-89b0cd5eac28,False,ChIJqeYp3NIEdkgRl9hMI8pRL8U,Barrafina,"26-27 Dean St, London W1D 3LL, UK",51.5141109137758,-0.1326674222946167,Restaurant,a2fa95a7-428a-414b-a249-9e8d4a8aa9bd,1676a419-f2d0-4bf4-a5ae-569fea25e991
0027d4bf-8c57-473e-aa7e-33a3b1b1d95b,False,ChIJP-zaZbqh2EcRhNdANKcXmyU,The Gardeners Arms Loughton,"103 York Hill, Loughton IG10 1RX, UK",51.6544539040435,0.0599956512451171,Bar,f06cb191-eeb2-4e39-9300-674af0a4be4b,031970b0-c0f6-450a-8515-4129c30f3302
b677a674-7b32-454b-9c52-cfb01f5f038e,False,ChIJSe-ijOAbdkgR--NS4CB86_A,MEATliquor Restaurant W1,"37-38 Margaret St, London W1G 0JF, UK",51.51615469999999,-0.1428688,Bar,7d6570e0-c264-4105-a26e-7864393b92ed,f25607ca-ec88-46dc-a1f3-b8dedd3e5ca3
5e7a2cf0-e9bc-4fc8-818b-763244375ebf,False,ChIJK7VnItUadkgRIKtptwcYHNw,Swingers Crazy Golf,"15 John Prince's St, London W1G 0AB, UK",51.51597539999999,-0.1434136,Bar,7d6570e0-c264-4105-a26e-7864393b92ed,f25607ca-ec88-46dc-a1f3-b8dedd3e5ca3
52c555f4-007f-4dd1-9d75-a0dfc38425ad,False,ChIJ-bg_WdYadkgRD-AagbO6NpE,Kibele,"175-177 Great Portland St, London W1W 5PJ, UK",51.5218837,-0.1436869,Restaurant,bdfe61ed-df50-4024-bdee-a23591f45736,f25607ca-ec88-46dc-a1f3-b8dedd3e5ca3
e9f7acb8-e250-4253-bb52-2d0e4dd6d989,False,ChIJeVe83k4bdkgRjMh8CSSGOEs,The Gunmakers,"13 Eyre St Hill, London EC1R 5ET, UK",51.5225892298516,-0.1104386150836944,Bar,d6281a4d-bb07-4586-84b6-c4eab9b52dc4,87b4b121-bf17-44e7-805a-a860f9ee4b33
7ed56c7f-9e38-4b19-8f17-19684fa5be51,False,ChIJDZPR4SgDdkgR2_djyaGslOM,Prospect of Whitby,"57 Wapping Wall, London E1W 3SH, UK",51.50714982903728,-0.0511497259140014,Bar,28bd21f4-5a9c-42e5-8103-04e9769f7709,480fafaa-7b2b-4282-a14f-e226e0b20922
dc3dc762-de64-421e-bc0b-e861e3766ae2,False,ChIJZbyzWY8ddkgR7-HeGK0g2E0,Laurel's On The Roof,"45 Curtain Rd, London EC2A 3PT, UK",51.52367839999999,-0.0805613999999999,Restaurant,08d27125-da1f-4d06-bdc3-ee4604a498d0,71f589fb-f617-48b9-b779-dc1e8d73b1fe
6fd8fac8-38e5-4bab-9765-68a07ef3ff97,False,ChIJQ9s9uh8ddkgRqnHZuVxvyoI,The Lauriston,"162 Victoria Park Rd, London E9 7JN, UK",51.537920795973065,-0.0450745224952697,Bar,6f9943a0-e2b0-47f8-9e42-b1577d54cc22,16240ef3-d2e9-4d02-bd79-fabaf2147ff3
c7223326-661e-49ed-a0b2-da5bd4758508,False,ChIJO5NM4aUcdkgR-XrNmE-75f8,Nightjar,"129 City Rd, London EC1V 1JB, UK",51.52652471172488,-0.0877377390861511,Bar,1cd39885-66f1-47e2-8948-eb468ad78c3f,71f589fb-f617-48b9-b779-dc1e8d73b1fe
fc50544d-d56e-4358-92a2-38a33aae5071,False,ChIJx-qWEgAbdkgR0D05nwBzcuc,Caravan,"152 Great Portland St, London W1W 6AJ, UK",51.520775531168496,-0.1427659392356872,Restaurant,bdfe61ed-df50-4024-bdee-a23591f45736,f25607ca-ec88-46dc-a1f3-b8dedd3e5ca3
610d6a7a-b922-4a4a-9302-6cdd869ce4f5,False,ChIJPZQrmoEbdkgRYkei5lsTuCc,The Gunners,"204 Blackstock Rd, London N5 1EN, UK",51.55893349820196,-0.0987830758094787,Bar,2ba058c6-bdcf-4144-bb4a-315a93adfd29,8e74a1f3-b8fc-4986-a520-0884eb581cb7
9ad4bece-d79b-44b3-9c2d-d57747e6c960,False,ChIJfwHrbIocdkgRAg-XAwbc1ms,Yucatan Bar,"121 Stoke Newington Rd, London N16 8BT, UK",51.55592012763324,-0.0748631358146667,Bar,2a829aac-cd42-4f92-bb27-7417ea56f4fd,16240ef3-d2e9-4d02-bd79-fabaf2147ff3
d5cd1760-b22e-49e8-832e-6eb5cab180f3,False,ChIJJ_b_8OUcdkgRe50aD2Mcvuk,Pub On The Park,"19 Martello St, London E8 3PE, UK",51.54203157096124,-0.0582277402281761,Bar,cc6e0333-78d2-454e-8928-cc3f843da984,16240ef3-d2e9-4d02-bd79-fabaf2147ff3
ad2bbf86-9982-4180-a815-6e0b075eba1c,False,ChIJRZbnpGEcdkgRO2U7Q9YJEs4,The White Hart,"69 Stoke Newington High St, London N16 8EL, UK",51.55911296838674,-0.0743880495429039,Bar,e3fdc4e4-8bce-4e2f-8282-edfd9691b041,16240ef3-d2e9-4d02-bd79-fabaf2147ff3
e7e819fb-a913-467e-94d3-1ca2f6473a6e,False,ChIJByRwS_QddkgRniyqEKqpBrY,Lord Raglan E17,"199 Shernhall St, London E17 9HX, UK",51.58090822116295,-0.003443956375122,Bar,cf3f6f99-3fcb-41c9-a73d-cbe05a277817,be3be431-d8c0-4327-83e7-4718f2d97d97
32a17618-9e23-450c-b921-a6bab0dfdd6f,False,ChIJl1l3INQEdkgR9NcwIm5QKmQ,Caff√® Concerto Piccadilly,"29-31 Piccadilly, London W1J 0LF, UK",51.509258298646905,-0.1368328928947448,Restaurant,78974d23-26f1-44ca-a34b-526fb180e30b,1676a419-f2d0-4bf4-a5ae-569fea25e991
d0511359-f648-4edc-baec-f2e5f751bb5c,False,ChIJiS4xtS0bdkgR6EmBf34h-h0,The Jack Horner,"234-236 Tottenham Ct Rd, London W1T 7QN, UK",51.5187443699313,-0.132184624671936,Bar,a2fa95a7-428a-414b-a249-9e8d4a8aa9bd,1676a419-f2d0-4bf4-a5ae-569fea25e991
bbf5d575-eb9c-4b6c-b6ba-b0d325f452cc,False,ChIJm9YN-dYEdkgRnhU8lSEwS8M,Chequers Tavern,"16 Duke St, St. James's, London SW1Y 6DB, UK",51.50751084669122,-0.1378072053194046,Bar,17aa3af6-908d-4631-ab8c-fcbc1b5a0065,1676a419-f2d0-4bf4-a5ae-569fea25e991
d066f8fb-821a-44d3-813c-21a1f8b48db2,False,ChIJNwsCAEobdkgRyhCDk67b3Js,The Enterprise,"The Enterprise, 38 Red Lion St, London WC1R 4PN, UK",51.52023144920226,-0.1174458861351013,Bar,ddc420a7-76a5-474e-92c4-b3d065feb9f3,87fbc59f-9c44-4e78-b4b5-000ef3b4d559
fcd12e42-3d31-4ea7-81f9-87beeb15a366,False,ChIJa2c6YVcDdkgRYAgQ0sCusN0,The Old Kings Head,"King's Head Yard, London SE1 1NA, UK",51.50464725114729,-0.0895187258720398,Bar,f5b94c64-beb5-4295-95a1-34fc1f5b5a8d,71f589fb-f617-48b9-b779-dc1e8d73b1fe
ab307597-3cc6-4697-a160-1f8d0097e085,False,ChIJkWXN3oUDdkgRNhS1GGhMz50,Goldwood Sports Pub & Kitchen,"30 Old Jewry, London EC2R 8DQ, UK",51.51465006132748,-0.0908035039901733,Bar,7a683234-b0e5-49f4-b894-55b5ddaa9eef,71f589fb-f617-48b9-b779-dc1e8d73b1fe
0c00dbd3-a6fd-4c6b-8006-2d98c0d8b175,False,ChIJ3b0ZEukddkgRQkxkAutRFj8,Turtle Bay Walthamstow,"The Scene, Cleveland Place, 269 High St, London E17 7FD, UK",51.58508823416454,-0.0198563933372497,Bar,4cb5aabd-df77-44d4-9f6a-e0452b6f00fa,be3be431-d8c0-4327-83e7-4718f2d97d97
3c0e13d2-57f5-4e20-85da-8c49873b9224,False,ChIJjQgs4acEdkgRQfSEih1EjSw,Flat Iron Square,"45 Southwark St, London SE1 9HP, UK",51.5046238775238,-0.0933837890625,Bar,57e01997-ee1b-4f2b-91fa-d0797ed221d2,71f589fb-f617-48b9-b779-dc1e8d73b1fe
e7c2cc87-e065-41e0-b34e-5607b0d6cb68,False,ChIJ07ZGzw9qdkgRmoWgcfGwL9Q,Prime Steak & Grill,"Redhall Ln, Chandler's Cross, Watford, Rickmansworth WD3 4LU, UK",51.67290944801295,-0.4599371552467346,Restaurant,6f4497a9-9ff0-4066-b918-a9925830695b,9bc188bd-c112-456f-bfcf-5c31030b2d24
54ed8eb6-770a-4ed4-b269-a7c770447aed,False,ChIJf6KtQNNrdkgRiLfxZOJWPow,The Coach & Horses,"22 High St, Rickmansworth WD3 1ER, UK",51.639375106596304,-0.4664522409439087,Bar,1de6f3bd-59ca-47c3-9e5b-e924837389ba,9bc188bd-c112-456f-bfcf-5c31030b2d24
1e2588e4-74eb-49b7-9c44-e9716b26c64d,False,ChIJv16nk7ocdkgR5P9wUhZgUpU,The Blues Kitchen,"134-146 Curtain Rd, London EC2A 3AR, UK",51.52655474907851,-0.0802087783813476,bar,08d27125-da1f-4d06-bdc3-ee4604a498d0,71f589fb-f617-48b9-b779-dc1e8d73b1fe
589baf35-626d-4581-9a9f-b15e60f6fc84,False,ChIJJdCSc7ocdkgRqOofbAUhpgs,Barrio Shoreditch,"141-143 Shoreditch High St, London E1 6JE, UK",51.52607414904275,-0.0782346725463867,bar,08d27125-da1f-4d06-bdc3-ee4604a498d0,71f589fb-f617-48b9-b779-dc1e8d73b1fe
d156ac75-0402-4b7f-8140-1272cc620366,False,ChIJZVcEfdCn2EcRq7dHSlrznEw,Newham University Hospital,"Glen Rd, London E13 8SL, UK",51.52252289155896,0.037078857421875,other,0f5041f1-5f2f-4346-b412-49ae894aab0d,031970b0-c0f6-450a-8515-4129c30f3302
2615935b-9f1d-4181-bfd7-cc492b5e16f1,False,ChIJZVcEfdCn2EcRq7dHSlrznEw,Newham University Hospital,"Glen Rd, London E13 8SL, UK",51.52252289155896,0.037078857421875,Other,0f5041f1-5f2f-4346-b412-49ae894aab0d,031970b0-c0f6-450a-8515-4129c30f3302
496c556c-124e-45ed-a9a6-5630502257b2,False,ChIJQfF2b2QddkgRhvL1CKoDiuo,Westfield Stratford City,"Montfichet Rd, London E20 1EJ, UK",51.54409317883979,-0.0053215026855468,other,ab586c26-a254-4028-8ac3-5832e1be45e1,be3be431-d8c0-4327-83e7-4718f2d97d97
1be322d1-88b8-45b8-9605-9ab95c5aecc5,False,ChIJr3WWTUMbdkgRg98ItwdwrLE,Old Red Lion Theatre Pub,"418 St John St, London EC1V 4NJ, UK",51.53146725848095,-0.1060009002685546,bar,d2878413-cc97-4454-984d-bb72e04c8bcc,dba395e1-7632-4228-a9b8-e0e4dba2fac5
fd3429c1-e6df-4d09-a9f1-3fa297a0e8ca,False,ChIJfwHrbIocdkgRAg-XAwbc1ms,Yucatan Bar,"121 Stoke Newington Rd, London N16 8BT, UK",51.55592012763324,-0.0748631358146667,bar,2a829aac-cd42-4f92-bb27-7417ea56f4fd,16240ef3-d2e9-4d02-bd79-fabaf2147ff3
